NORAD_CAT_ID,OBJECT_NAME,OBJECT_TYPE,EPOCH,MEAN_MOTION,ECCENTRICITY,INCLINATION,RA_OF_ASC_NODE,ARG_OF_PERICENTER,MEAN_ANOMALY,BSTAR,MEAN_MOTION_DOT,MEAN_MOTION_DDOT,TLE_LINE0,TLE_LINE1,TLE_LINE2,SEMIMAJOR_AXIS,PERIOD,APOGEE,PERIGEE,DECAYED
52123.0,STARLINK-3725,PAYLOAD,2024-05-18 17:41:41,15.08839042,0.0001519,53.218,151.6983,95.3019,264.8146,-1.9186e-05,-5.93e-06,0.0,0 STARLINK-3725,1 52123U 22029AM  24139.73728174 -.00000593  00000-0 -19186-4 0  9994,2 52123  53.2180 151.6983 0001519  95.3019 264.8146 15.08839042121308,6917.883,95.438,540.799,538.697,0.0
52123.0,STARLINK-3725,PAYLOAD,2024-05-19 09:35:33,15.08811901,0.0001712,53.218,148.7246,100.7346,259.3839,0.00033517,5.046e-05,0.0,0 STARLINK-3725,1 52123U 22029AM  24140.39969035  .00005046  00000-0  33517-3 0  9990,2 52123  53.2180 148.7246 0001712 100.7346 259.3839 15.08811901121409,6917.966,95.439,541.016,538.647,0.0
52123.0,STARLINK-3725,PAYLOAD,2024-05-19 17:32:27,15.08850857,0.0001473,53.2177,147.2367,96.2955,263.8205,-0.00014866,-2.654e-05,0.0,0 STARLINK-3725,1 52123U 22029AM  24140.73087932 -.00002654  00000-0 -14866-3 0  9995,2 52123  53.2177 147.2367 0001473  96.2955 263.8205 15.08850857121457,6917.847,95.437,540.731,538.693,0.0
52123.0,STARLINK-3725,PAYLOAD,2024-05-20 04:40:10,15.08838333,0.0001469,53.2175,145.1549,92.1706,267.9455,0.00012946,1.773e-05,0.0,0 STARLINK-3725,1 52123U 22029AM  24141.19456257  .00001773  00000-0  12946-3 0  9992,2 52123  53.2175 145.1549 0001469  92.1706 267.9455 15.08838333121523,6917.885,95.438,540.767,538.734,0.0
52123.0,STARLINK-3725,PAYLOAD,2024-05-20 07:50:56,15.0884133,0.0001431,53.2172,144.5597,91.4169,268.6987,0.00011653,1.567e-05,0.0,0 STARLINK-3725,1 52123U 22029AM  24141.32704122  .00001567  00000-0  11653-3 0  9999,2 52123  53.2172 144.5597 0001431  91.4169 268.6987 15.08841330121541,6917.876,95.437,540.731,538.751,0.0
52123.0,STARLINK-3725,PAYLOAD,2024-05-21 09:17:07,15.08836793,0.0001357,53.2169,139.8016,91.6853,268.4294,5.9286e-05,6.56e-06,0.0,0 STARLINK-3725,1 52123U 22029AM  24142.38688773  .00000656  00000-0  59286-4 0  9992,2 52123  53.2169 139.8016 0001357  91.6853 268.4294 15.08836793121703,6917.89,95.438,540.694,538.816,0.0
52123.0,STARLINK-3725,PAYLOAD,2024-05-22 04:21:44,15.0884584,0.0001371,53.217,136.2337,90.8607,269.2543,7.4916e-05,9.05e-06,0.0,0 STARLINK-3725,1 52123U 22029AM  24143.18176052  .00000905  00000-0  74916-4 0  9997,2 52123  53.2170 136.2337 0001371  90.8607 269.2543 15.08845840121828,6917.863,95.437,540.676,538.779,0.0
52123.0,STARLINK-3725,PAYLOAD,2024-05-22 09:07:53,15.0884911,0.000148,53.2172,135.3415,83.0562,277.0598,9.8895e-05,1.287e-05,0.0,0 STARLINK-3725,1 52123U 22029AM  24143.38047756  .00001287  00000-0  98895-4 0  9993,2 52123  53.2172 135.3415 0001480  83.0562 277.0598 15.08849110121856,6917.853,95.437,540.741,538.694,0.0
52123.0,STARLINK-3725,PAYLOAD,2024-05-23 04:12:31,15.08825305,0.0001475,53.2178,131.7687,97.9768,262.1391,0.00017114,2.436e-05,0.0,0 STARLINK-3725,1 52123U 22029AM  24144.17536689  .00002436  00000-0  17114-3 0  9990,2 52123  53.2178 131.7687 0001475  97.9768 262.1391 15.08825305121978,6917.925,95.438,540.811,538.77,0.0
52123.0,STARLINK-3725,PAYLOAD,2024-05-23 05:47:54,15.08836515,0.0001415,53.2175,131.4718,89.6848,270.4306,7.8636e-06,-1.63e-06,0.0,0 STARLINK-3725,1 52123U 22029AM  24144.24160707 -.00000163  00000-0  78636-5 0  9996,2 52123  53.2175 131.4718 0001415  89.6848 270.4306 15.08836515121982,6917.891,95.438,540.735,538.777,0.0
52123.0,STARLINK-3725,PAYLOAD,2024-05-24 04:03:18,15.08840531,0.0001673,53.2179,127.3089,116.831,243.2854,1.6685e-05,-2.2e-07,0.0,0 STARLINK-3725,1 52123U 22029AM  24145.16896332 -.00000022  00000-0  16685-4 0  9997,2 52123  53.2179 127.3089 0001673 116.8310 243.2854 15.08840531122120,6917.879,95.438,540.901,538.586,0.0
52123.0,STARLINK-3725,PAYLOAD,2024-05-24 08:49:27,15.08839971,0.0001607,53.2181,126.4178,113.5651,246.551,3.1333e-06,-2.38e-06,0.0,0 STARLINK-3725,1 52123U 22029AM  24145.36768425 -.00000238  00000-0  31333-5 0  9997,2 52123  53.2181 126.4178 0001607 113.5651 246.5510 15.08839971122155,6917.88,95.438,540.857,538.634,0.0
52123.0,STARLINK-3725,PAYLOAD,2024-05-24 18:21:47,15.08834042,0.0001398,53.2169,124.6353,105.0422,255.0725,2.4374e-05,1e-06,0.0,0 STARLINK-3725,1 52123U 22029AM  24145.76512819  .00000100  00000-0  24374-4 0  9998,2 52123  53.2169 124.6353 0001398 105.0422 255.0725 15.08834042122219,6917.899,95.438,540.731,538.796,0.0
52123.0,STARLINK-3725,PAYLOAD,2024-05-24 23:07:56,15.08829913,0.0001377,53.2169,123.743,100.8495,259.2652,1.5375e-05,-4.3e-07,0.0,0 STARLINK-3725,1 52123U 22029AM  24145.96385188 -.00000043  00000-0  15375-4 0  9995,2 52123  53.2169 123.7430 0001377 100.8495 259.2652 15.08829913122244,6917.911,95.438,540.729,538.824,0.0
52123.0,STARLINK-3725,PAYLOAD,2024-05-25 08:40:15,15.08832993,0.0001383,53.217,121.9588,99.2409,260.874,3.6459e-05,2.92e-06,0.0,0 STARLINK-3725,1 52123U 22029AM  24146.36129104  .00000292  00000-0  36459-4 0  9995,2 52123  53.2170 121.9588 0001383  99.2409 260.8740 15.08832993122308,6917.902,95.438,540.724,538.81,0.0
52123.0,STARLINK-3725,PAYLOAD,2024-05-26 05:20:16,15.08834967,0.00014,53.2176,118.096,102.2998,257.8151,2.2948e-05,7.7e-07,0.0,0 STARLINK-3725,1 52123U 22029AM  24147.22241396  .00000077  00000-0  22948-4 0  9998,2 52123  53.2176 118.0960 0001400 102.2998 257.8151 15.08834967122432,6917.896,95.438,540.729,538.792,0.0
52123.0,STARLINK-3725,PAYLOAD,2024-05-27 06:46:26,15.08837992,0.0001385,53.2178,113.3353,90.7777,269.3373,6.4048e-05,7.31e-06,0.0,0 STARLINK-3725,1 52123U 22029AM  24148.28225423  .00000731  00000-0  64048-4 0  9992,2 52123  53.2178 113.3353 0001385  90.7777 269.3373 15.08837992122598,6917.887,95.438,540.71,538.793,0.0
52123.0,STARLINK-3725,PAYLOAD,2024-05-27 14:43:22,15.08837966,0.000139,53.218,111.848,90.2976,269.8176,6.4094e-05,7.32e-06,0.0,0 STARLINK-3725,1 52123U 22029AM  24148.61345436  .00000732  00000-0  64094-4 0  9998,2 52123  53.2180 111.8480 0001390  90.2976 269.8176 15.08837966122640,6917.887,95.438,540.713,538.79,0.0
52123.0,STARLINK-3725,PAYLOAD,2024-05-28 05:01:50,15.08840875,0.0001392,53.2179,109.1689,86.6507,273.4644,6.528e-05,7.51e-06,0.0,0 STARLINK-3725,1 52123U 22029AM  24149.20961333  .00000751  00000-0  65280-4 0  9993,2 52123  53.2179 109.1689 0001392  86.6507 273.4644 15.08840875122734,6917.878,95.437,540.706,538.78,0.0
52123.0,STARLINK-3725,PAYLOAD,2024-05-28 20:55:42,15.08841774,0.0001354,53.2177,106.1997,91.3957,268.719,2.6285e-05,1.3e-06,0.0,0 STARLINK-3725,1 52123U 22029AM  24149.87201398  .00000130  00000-0  26285-4 0  9997,2 52123  53.2177 106.1997 0001354  91.3957 268.7190 15.08841774122834,6917.875,95.437,540.677,538.803,0.0
52123.0,STARLINK-3725,PAYLOAD,2024-05-29 06:28:00,15.0884681,0.0001374,53.2177,104.4153,91.9816,268.1334,6.4854e-05,7.45e-06,0.0,0 STARLINK-3725,1 52123U 22029AM  24150.26944823  .00000745  00000-0  64854-4 0  9995,2 52123  53.2177 104.4153 0001374  91.9816 268.1334 15.08846810122897,6917.86,95.437,540.675,538.774,0.0
52123.0,STARLINK-3725,PAYLOAD,2024-05-30 03:08:01,15.08840611,0.000143,53.218,100.5492,111.4446,248.6699,-4.7345e-05,-1.041e-05,0.0,0 STARLINK-3725,1 52123U 22029AM  24151.13057542 -.00001041  00000-0 -47345-4 0  9993,2 52123  53.2180 100.5492 0001430 111.4446 248.6699 15.08840611123020,6917.879,95.438,540.733,538.754,0.0
52123.0,STARLINK-3725,PAYLOAD,2024-05-31 02:58:47,15.08847187,0.0001808,53.2198,96.0893,117.4685,242.6491,4.5721e-05,4.4e-06,0.0,0 STARLINK-3725,1 52123U 22029AM  24152.12416626  .00000440  00000-0  45721-4 0  9991,2 52123  53.2198  96.0893 0001808 117.4685 242.6491 15.08847187123178,6917.858,95.437,540.974,538.473,0.0
52123.0,STARLINK-3725,PAYLOAD,2024-05-31 06:09:34,15.08848771,0.0001687,53.2193,95.4933,113.7474,246.3695,5.1742e-05,5.36e-06,0.0,0 STARLINK-3725,1 52123U 22029AM  24152.25664461  .00000536  00000-0  51742-4 0  9993,2 52123  53.2193  95.4933 0001687 113.7474 246.3695 15.08848771123190,6917.854,95.437,540.886,538.552,0.0
52123.0,STARLINK-3725,PAYLOAD,2024-06-01 02:49:35,15.08842252,0.0001252,53.2181,91.6282,92.125,267.9886,5.8241e-05,6.39e-06,0.0,0 STARLINK-3725,1 52123U 22029AM  24153.11776907  .00000639  00000-0  58241-4 0  9993,2 52123  53.2181  91.6282 0001252  92.1250 267.9886 15.08842252123326,6917.874,95.437,540.605,538.872,0.0
52123.0,STARLINK-3725,PAYLOAD,2024-06-01 12:21:54,15.0883777,0.0001192,53.218,89.8434,89.6018,270.5111,1.8327e-05,4e-08,0.0,0 STARLINK-3725,1 52123U 22029AM  24153.51521330  .00000004  00000-0  18327-4 0  9992,2 52123  53.2180  89.8434 0001192  89.6018 270.5111 15.08837770123385,6917.887,95.438,540.577,538.928,0.0
52123.0,STARLINK-3725,PAYLOAD,2024-06-02 02:40:23,15.08834411,0.0001283,53.218,87.172,92.7876,267.3263,-0.00011043,-2.045e-05,0.0,0 STARLINK-3725,1 52123U 22029AM  24154.11138223 -.00002045  00000-0 -11043-3 0  9990,2 52123  53.2180  87.1720 0001283  92.7876 267.3263 15.08834411123473,6917.897,95.438,540.65,538.875,0.0
52123.0,STARLINK-3725,PAYLOAD,2024-06-02 12:12:42,15.08837169,0.0001312,53.2188,85.3881,94.6252,265.489,-0.00010201,-1.911e-05,0.0,0 STARLINK-3725,1 52123U 22029AM  24154.50882146 -.00001911  00000-0 -10201-3 0  9999,2 52123  53.2188  85.3881 0001312  94.6252 265.4890 15.08837169123536,6917.889,95.438,540.662,538.846,0.0
52123.0,STARLINK-3725,PAYLOAD,2024-06-02 20:09:37,15.08837709,0.0001156,53.2188,83.9013,98.742,261.3703,-1.5546e-05,-5.35e-06,0.0,0 STARLINK-3725,1 52123U 22029AM  24154.84002134 -.00000535  00000-0 -15546-4 0  9996,2 52123  53.2188  83.9013 0001156  98.7420 261.3703 15.08837709123588,6917.887,95.438,540.552,538.953,0.0
52123.0,STARLINK-3725,PAYLOAD,2024-06-03 02:31:10,15.08841527,0.0001213,53.2188,82.7121,106.8653,253.2472,2.8271e-05,1.62e-06,0.0,0 STARLINK-3725,1 52123U 22029AM  24155.10497741  .00000162  00000-0  28271-4 0  9991,2 52123  53.2188  82.7121 0001213 106.8653 253.2472 15.08841527123629,6917.876,95.437,540.58,538.902,0.0
